NAVSTAR 48 (USA 151)    
1 26407U 00040A   26190.26284742  .00000108  00000+0  00000+0 0  9993
2 26407  54.8492 214.2854 0120622 302.6709  80.4805  2.00557788190398
NAVSTAR 51 (USA 166)    
1 27663U 03005A   26190.05732503  .00000108  00000+0  00000+0 0  9992
2 27663  54.8798 214.0998 0148158  53.1389 317.7875  2.00559332171754
NAVSTAR 54 (USA 177)    
1 28190U 04009A   26189.36503007 -.00000020  00000+0  00000+0 0  9994
2 28190  54.8121 274.8310 0116954 174.0325 209.7158  2.00553955163372
NAVSTAR 56 (USA 180)    
1 28474U 04045A   26188.74244983 -.00000072  00000+0  00000+0 0  9992
2 28474  55.1231 324.0687 0170056 316.8842  42.3770  2.00556754158848
NAVSTAR 57 (USA 183)    
1 28874U 05038A   26190.30578782 -.00000011  00000+0  00000+0 0  9994
2 28874  54.8602 272.2841 0128142 296.3422  76.1359  2.00564085152287
INMARSAT 4-F2           
1 28899U 05044A   26190.31211968 -.00000251  00000+0  00000+0 0  9995
2 28899   5.1228  43.6476 0002965  56.5320  82.9247  1.00271464 75749
NAVSTAR 58 (USA 190)    
1 29486U 06042A   26190.11781788  .00000066  00000+0  00000+0 0  9990
2 29486  54.7126 150.4682 0107015  54.9780  80.6146  2.00568543144837
NAVSTAR 59 (USA 192)    
1 29601U 06052A   26189.35918528  .00000105  00000+0  00000+0 0  9992
2 29601  54.9329 213.1669 0084812  90.9771 270.0548  2.00559276143837
NAVSTAR 60 (USA 196)    
1 32260U 07047A   26190.16326571 -.00000040  00000+0  00000+0 0  9993
2 32260  54.1110  79.1599 0167587  87.8540 274.1065  2.00554162137251
COSMOS 2433 [GLONASS-M] 
1 32275U 07052A   26189.97073473 -.00000055  00000+0  00000+0 0  9998
2 32275  65.5635 315.2012 0003283 202.4684 157.5248  2.13104372145529
COSMOS 2432 [GLONASS-M] 
1 32276U 07052B   26190.29805885 -.00000057  00000+0  00000+0 0  9998
2 32276  65.5795 315.3184 0007471 324.5153 230.3911  2.13103296145552
NAVSTAR 61 (USA 199)    
1 32384U 07062A   26189.45595171 -.00000016  00000+0  00000+0 0  9994
2 32384  55.0147 273.2970 0036006 167.0393 170.0598  2.00561245135934
COSMOS 2434 [GLONASS-M] 
1 32393U 07065A   26189.88237226  .00000126  00000+0  00000+0 0  9999
2 32393  64.3197 191.1839 0001274 326.7883 215.1474  2.13101412144238
COSMOS 2436 [GLONASS-M] 
1 32395U 07065C   26189.13069841  .00000125  00000+0  00000+0 0  9994
2 32395  64.3283 191.2816 0017280 353.5222 103.9798  2.13100210144172
NAVSTAR 62 (USA 201)    
1 32711U 08012A   26190.07254132  .00000064  00000+0  00000+0 0  9995
2 32711  54.4996 149.0505 0211625 248.0903 109.6271  2.00572939134191
NAVSTAR 64 (USA 206)    
1 35752U 09043A   26190.28406626 -.00000053  00000+0  00000+0 0  9997
2 35752  56.2241  26.5847 0053769  84.1312  76.7059  2.00553039123800
COSMOS 2456 [GLONASS-M] 
1 36111U 09070A   26189.16214819 -.00000024  00000+0  00000+0 0  9991
2 36111  65.0231  70.2570 0003836 336.8240 170.8468  2.13103862128874
COSMOS 2457 [GLONASS-M] 
1 36112U 09070B   26190.36377523 -.00000025  00000+0  00000+0 0  9999
2 36112  65.0094  70.0596 0003846 123.0305 353.6962  2.13101250128900
COSMOS 2460 [GLONASS-M] 
1 36402U 10007C   26189.97123418 -.00000055  00000+0  00000+0 0  9993
2 36402  65.4066 313.7300 0001810 135.0435  42.4983  2.13101759127191
NAVSTAR 65 (USA 213)    
1 36585U 10022A   26189.46104831  .00000110  00000+0  00000+0 0  9995
2 36585  54.2691 207.7050 0126595  66.1483 340.0151  2.00563411118021
BEIDOU-2 IGSO-1         
1 36828U 10036A   26188.62304566 -.00000058  00000+0  00000+0 0  9996
2 36828  54.3062 162.7756 0059224 225.1869 229.2421  1.00266308 58302
BEIDOU-2 G4             
1 37210U 10057A   26189.81630007 -.00000102  00000+0  00000+0 0  9999
2 37210   3.6970  68.8160 0005298 185.3883 126.3837  1.00270552 57508
BEIDOU-2 IGSO-2         
1 37256U 10068A   26189.60313632 -.00000203  00000+0  00000+0 0  9992
2 37256  47.5085 271.5668 0056755 213.3757 127.0514  1.00276139 57006
BEIDOU-2 IGSO-3         
1 37384U 11013A   26190.51857615 -.00000172  00000+0  00000+0 0  9996
2 37384  62.4382  39.9419 0035198 183.2390 357.7550  1.00261852 55882
GSAT-8                  
1 37605U 11022A   26190.22336689  .00000096  00000+0  00000+0 0  9997
2 37605   2.1848  81.5580 0002580 166.1048 174.9877  1.00271255 53435
BEIDOU-2 IGSO-4         
1 37763U 11038A   26189.92399286  .00000047  00000+0  00000+0 0  9992
2 37763  54.6042 165.4802 0160166 231.4337 316.7492  1.00281046 54865
GSAT0101 (GALILEO-PFM)  
1 37846U 11060A   26189.55204449 -.00000074  00000+0  00000+0 0  9995
2 37846  56.9869 341.1826 0002415  60.6868 299.3373  1.70475585 91484
GSAT0102 (GALILEO-FM2)  
1 37847U 11060B   26189.47708995 -.00000074  00000+0  00000+0 0  9992
2 37847  56.9877 341.1851 0002423  11.7755 347.8886  1.70475862 91489
COSMOS 2476 [GLONASS-M] 
1 37867U 11064A   26189.32821376 -.00000023  00000+0  00000+0 0  9995
2 37867  65.2814  72.1581 0022400 236.6261 306.7703  2.13103973114211
COSMOS 2477 [GLONASS-M] 
1 37868U 11064B   26188.15487328 -.00000020  00000+0  00000+0 0  9998
2 37868  65.2873  72.2772 0019396 237.9015 305.6247  2.13103195114184
COSMOS 2475 [GLONASS-M] 
1 37869U 11064C   26189.17546069 -.00000023  00000+0  00000+0 0  9993
2 37869  65.2947  72.2646 0025048 251.6541 309.8644  2.13101995114212
